STARLINK-2022           
1 47643U 21012Z   24195.86285861  .00000642  00000+0  62013-4 0  9992
2 47643  53.0538 242.3010 0001151  99.3062 260.8057 15.06399630189254
